     2.100          NAVIGATION                              RINEX VERSION / TYPE
fic2rin                                 10/21/2013 00:22:32 PGM / RUN BY / DATE
                                                            END OF HEADER
25 13 10 20  8  0  0.0  .159152317792D-03  .363797880709D-11  .000000000000D+00
     .550000000000D+02 -.518125000000D+02  .398730894457D-08  .181859158798D+01
    -.272132456303D-05  .275107135531D-02  .119712203741D-04  .515371263123D+04
     .288000000000D+05 -.745058059692D-07  .874972444286D-01  .316649675369D-07
     .974722751149D+00  .154906250000D+03  .710644250603D+00 -.767710549654D-08
     .885751180806D-10  .100000000000D+01  .176300000000D+04  .000000000000D+00
     .240000000000D+01  .000000000000D+00  .558793544769D-08  .550000000000D+02
     .216060000000D+05  .400000000000D+01
26 13 10 20  8  0  0.0  .247742515057D-03  .190993887372D-10  .000000000000D+00
     .620000000000D+02  .819375000000D+02  .430303638159D-08 -.161993806380D+01
     .466965138912D-05  .210907808505D-01  .279955565929D-05  .515368558502D+04
     .288000000000D+05  .402331352234D-06 -.190692434881D+01  .247731804848D-06
     .977134732944D+00  .330562500000D+03  .125404328983D+01 -.805212111745D-08
     .377158567311D-09  .100000000000D+01  .176300000000D+04  .000000000000D+00
     .240000000000D+01  .000000000000D+00 -.558793544769D-08  .620000000000D+02
     .216060000000D+05  .400000000000D+01
27 13 10 20  8  0  0.0 -.497456640005D-04 -.397903932026D-11  .000000000000D+00
     .270000000000D+02  .386562500000D+02  .478698511143D-08 -.107985863878D+01
     .190362334251D-05  .460141920485D-03  .684708356857D-05  .515365987396D+04
     .288000000000D+05  .428408384323D-07  .113632690067D+01  .279396772385D-07
     .960928966800D+00  .248468750000D+03  .836112803591D+00 -.816534011919D-08
     .409659921123D-09  .100000000000D+01  .176300000000D+04  .000000000000D+00
     .240000000000D+01  .000000000000D+00  .186264514923D-08  .270000000000D+02
     .216060000000D+05  .400000000000D+01
28 13 10 20  8  0  0.0  .302045606077D-03  .306954461848D-11  .000000000000D+00
     .100000000000D+02 -.495625000000D+02  .387480425829D-08  .436872396346D+00
    -.247173011303D-05  .188862186624D-01  .121779739857D-04  .515365886116D+04
     .288000000000D+05 -.232830643654D-06  .151887235513D+00  .558793544769D-08
     .985051207337D+00  .165343750000D+03 -.176011683008D+01 -.793461622290D-08
     .360729311538D-10  .100000000000D+01  .176300000000D+04  .000000000000D+00
     .240000000000D+01  .000000000000D+00 -.107102096081D-07  .100000000000D+02
     .216060000000D+05  .400000000000D+01
29 13 10 20  8  0  0.0  .480335671455D-03  .318323145621D-11  .000000000000D+00
     .400000000000D+02  .423750000000D+02  .465912264259D-08  .252436705704D+01
     .211969017982D-05  .141711719334D-02  .628270208836D-05  .515355408859D+04
     .288000000000D+05 -.204890966415D-07  .118937256770D+01  .428408384323D-07
     .966943802759D+00  .261125000000D+03 -.100594007854D+01 -.806247869174D-08
     .370015412627D-09  .100000000000D+01  .176300000000D+04  .000000000000D+00
     .240000000000D+01  .000000000000D+00 -.931322574615D-08  .400000000000D+02
     .216060000000D+05  .400000000000D+01
31 13 10 20  8  0  0.0  .328218564391D-03  .682121026330D-12  .000000000000D+00
     .530000000000D+02 -.100531250000D+03  .438768276460D-08  .313836423331D+01
    -.500679016113D-05  .802376144566D-02  .386498868465D-05  .515369243431D+04
     .288000000000D+05 -.968575477600D-07 -.927295137199D+00  .178813934326D-06
     .979650292264D+00  .314625000000D+03 -.730625966304D+00 -.808355099806D-08
    -.302155443130D-09  .100000000000D+01  .176300000000D+04  .000000000000D+00
     .240000000000D+01  .000000000000D+00 -.130385160446D-07  .530000000000D+02
     .216060000000D+05  .400000000000D+01
32 13 10 20  8  0  0.0 -.538649037480D-03  .375166564481D-11  .000000000000D+00
     .134000000000D+03  .774375000000D+02  .426374903083D-08 -.268261142062D+01
     .405311584473D-05  .116073852405D-01  .128895044327D-04  .515358274841D+04
     .288000000000D+05 -.169500708580D-06 -.296335710776D+01  .596046447754D-07
     .949105038217D+00  .124031250000D+03 -.266132668671D+00 -.775675167127D-08
    -.507163982558D-10  .100000000000D+01  .176300000000D+04  .000000000000D+00
     .340000000000D+01  .000000000000D+00 -.279396772385D-08  .134000000000D+03
     .216060000000D+05  .400000000000D+01
32 13 10 20  7 59 44.0 -.538650900126D-03  .375166564481D-11  .000000000000D+00
     .300000000000D+01  .774375000000D+02  .426374903083D-08 -.268494522261D+01
     .405311584473D-05  .116073816316D-01  .128895044327D-04  .515358276749D+04
     .287840000000D+05 -.169500708580D-06 -.296335699805D+01  .596046447754D-07
     .949105038217D+00  .124031250000D+03 -.266132867628D+00 -.775675167127D-08
    -.503592405216D-10  .100000000000D+01  .176300000000D+04  .000000000000D+00
     .240000000000D+01  .000000000000D+00 -.279396772385D-08  .300000000000D+01
     .222660000000D+05  .400000000000D+01
10 13 10 20  7 59 44.0 -.986168161035D-04 -.125055521494D-11  .000000000000D+00
     .900000000000D+01  .518750000000D+02  .459304846176D-08  .695182676737D+00
     .282190740108D-05  .129729445325D-01  .121202319860D-04  .515367709923D+04
     .287840000000D+05 -.208616256714D-06 -.303360679088D+01  .122934579849D-06
     .943412091049D+00  .138343750000D+03  .824852556363D+00 -.814641075928D-08
    -.263225250103D-09  .100000000000D+01  .176300000000D+04  .000000000000D+00
     .240000000000D+01  .000000000000D+00 -.232830643654D-08  .900000000000D+01
     .229560000000D+05  .400000000000D+01
21 13 10 20  7 59 44.0 -.324445776641D-03 -.181898940355D-11  .000000000000D+00
     .200000000000D+01 -.502187500000D+02  .531593571577D-08  .218272767841D+01
    -.296719372272D-05  .206283850130D-01  .603310763836D-05  .515361106300D+04
     .287840000000D+05 -.186264514923D-07  .218417939054D+01 -.432133674622D-06
     .931704029967D+00  .247843750000D+03 -.209744886732D+01 -.826070123422D-08
    -.461804950316D-09  .100000000000D+01  .176300000000D+04  .000000000000D+00
     .240000000000D+01  .000000000000D+00 -.111758708954D-07  .200000000000D+01
     .237360000000D+05  .400000000000D+01
23 13 10 20  7 59 44.0  .376305542886D-04 -.341060513165D-11  .000000000000D+00
     .140000000000D+02  .105500000000D+03  .487734601818D-08 -.162716677652D+01
     .519677996635D-05  .887508736923D-02  .351667404175D-05  .515364548302D+04
     .287840000000D+05  .651925802231D-07 -.199071277699D+01 -.126659870148D-06
     .953983150256D+00  .306406250000D+03 -.281434740724D+01 -.844320883640D-08
     .533236497155D-09  .100000000000D+01  .176300000000D+04  .000000000000D+00
     .240000000000D+01  .000000000000D+00 -.200234353542D-07  .140000000000D+02
     .241260000000D+05  .400000000000D+01
13 13 10 20  7 59 44.0  .682813115418D-04 -.375166564481D-11  .000000000000D+00
     .400000000000D+01  .904687500000D+02  .439125434194D-08 -.870544394605D+00
     .446662306786D-05  .502596492879D-02  .363029539585D-05  .515368841362D+04
     .287840000000D+05 -.447034835815D-07 -.189899491004D+01 -.558793544769D-07
     .979697452354D+00  .322875000000D+03  .220353264541D+01 -.831856078716D-08
     .431089385175D-09  .100000000000D+01  .176300000000D+04  .000000000000D+00
     .240000000000D+01  .000000000000D+00 -.107102096081D-07  .400000000000D+01
     .244560000000D+05  .400000000000D+01
10 13 10 20  9 59 44.0 -.986256636679D-04 -.125055521494D-11  .000000000000D+00
     .100000000000D+02  .497500000000D+02  .454090343257D-08  .174527791365D+01
     .256858766079D-05  .129741004203D-01  .128764659166D-04  .515367976189D+04
     .359840000000D+05 -.294297933578D-06 -.303366559873D+01 -.409781932831D-07
     .943410293123D+00  .123781250000D+03  .824934915725D+00 -.807355058150D-08
    -.236795577772D-09  .100000000000D+01  .176300000000D+04  .000000000000D+00
     .240000000000D+01  .000000000000D+00 -.232830643654D-08  .100000000000D+02
     .288060000000D+05  .400000000000D+01
13 13 10 20  9 59 44.0  .682538375258D-04 -.375166564481D-11  .000000000000D+00
     .180000000000D+02  .930000000000D+02  .433875215501D-08  .179592317495D+00
     .472366809845D-05  .502542208415D-02  .316277146339D-05  .515368733788D+04
     .359840000000D+05  .931322574615D-08 -.189905464537D+01 -.782310962677D-07
     .979700391357D+00  .326156250000D+03  .220356686599D+01 -.833856162028D-08
     .391087718945D-09  .100000000000D+01  .176300000000D+04  .000000000000D+00
     .240000000000D+01  .000000000000D+00 -.107102096081D-07  .180000000000D+02
     .288060000000D+05  .400000000000D+01
21 13 10 20  9 59 44.0 -.324459280819D-03 -.181898940355D-11  .000000000000D+00
     .280000000000D+02 -.477500000000D+02  .532486465913D-08 -.305024264616D+01
    -.258348882198D-05  .206280427519D-01  .577792525291D-05  .515361179352D+04
     .359840000000D+05  .167638063431D-06  .218412061780D+01 -.292435288429D-06
     .931700979783D+00  .249343750000D+03 -.209743931593D+01 -.817176895841D-08
    -.451804533758D-09  .100000000000D+01  .176300000000D+04  .000000000000D+00
     .240000000000D+01  .000000000000D+00 -.111758708954D-07  .280000000000D+02
     .288060000000D+05  .400000000000D+01
23 13 10 20  9 59 44.0  .376063399017D-04 -.341060513165D-11  .000000000000D+00
     .150000000000D+02  .104437500000D+03  .485913097374D-08 -.576962163076D+00
     .553950667381D-05  .887531868648D-02  .334717333317D-05  .515364572906D+04
     .359840000000D+05  .184401869774D-06 -.199077328768D+01  .335276126862D-07
     .953986109739D+00  .309250000000D+03 -.281435166141D+01 -.858892919195D-08
     .425017703693D-09  .100000000000D+01  .176300000000D+04  .000000000000D+00
     .240000000000D+01  .000000000000D+00 -.200234353542D-07  .150000000000D+02
     .288060000000D+05  .400000000000D+01
